     3.03           N: GNSS NAV DATA    M: MIXED            RINEX VERSION / TYPE
GR30 V4.20          ASI-egeos           20210707 235942 UTC PGM / RUN BY / DATE
GAL    7.5250D+01  3.6719D-01  6.1035D-03                   IONOSPHERIC CORR
GPSA   4.6566D-09  1.4901D-08 -5.9605D-08 -1.1921D-07       IONOSPHERIC CORR
GPSB   8.1920D+04  8.1920D+04 -6.5536D+04 -5.2429D+05       IONOSPHERIC CORR
BDSA   9.3132D-09  3.7253D-08 -3.5763D-07  5.3644D-07 W 05  IONOSPHERIC CORR
BDSA   9.3132D-09  3.7253D-08 -3.5763D-07  5.3644D-07 Q 06  IONOSPHERIC CORR
BDSA   9.3132D-09  3.7253D-08 -3.5763D-07  5.3644D-07 W 07  IONOSPHERIC CORR
BDSA   9.3132D-09  3.7253D-08 -3.5763D-07  5.3644D-07 U 09  IONOSPHERIC CORR
BDSA   9.3132D-09  3.7253D-08 -3.5763D-07  5.3644D-07 W 10  IONOSPHERIC CORR
BDSA   9.3132D-09  3.7253D-08 -3.5763D-07  5.3644D-07 P 11  IONOSPHERIC CORR
BDSA   9.3132D-09  3.7253D-08 -3.5763D-07  5.3644D-07 O 12  IONOSPHERIC CORR
BDSA   9.3132D-09  3.7253D-08 -3.5763D-07  5.3644D-07 K 13  IONOSPHERIC CORR
BDSA   9.3132D-09  3.7253D-08 -3.5763D-07  5.3644D-07 U 14  IONOSPHERIC CORR
BDSA   9.3132D-09  3.7253D-08 -3.5763D-07  5.3644D-07 Q 16  IONOSPHERIC CORR
BDSA   9.3132D-09  3.7253D-08 -3.5763D-07  5.3644D-07 M 19  IONOSPHERIC CORR
BDSA   9.3132D-09  3.7253D-08 -3.5763D-07  5.3644D-07 W 20  IONOSPHERIC CORR
BDSA   9.3132D-09  3.7253D-08 -3.5763D-07  5.3644D-07 Q 21  IONOSPHERIC CORR
BDSA   9.3132D-09  3.7253D-08 -3.5763D-07  5.3644D-07 O 22  IONOSPHERIC CORR
BDSA   9.3132D-09  3.7253D-08 -3.5763D-07  5.3644D-07 W 23  IONOSPHERIC CORR
BDSA   9.3132D-09  3.7253D-08 -3.5763D-07  5.3644D-07 U 24  IONOSPHERIC CORR
BDSA   9.3132D-09  3.7253D-08 -3.5763D-07  5.3644D-07 W 25  IONOSPHERIC CORR
BDSA   9.3132D-09  3.7253D-08 -3.5763D-07  5.3644D-07 S 26  IONOSPHERIC CORR
BDSA   9.3132D-09  3.7253D-08 -3.5763D-07  5.3644D-07 U 27  IONOSPHERIC CORR
BDSA   9.3132D-09  3.7253D-08 -3.5763D-07  5.3644D-07 S 28  IONOSPHERIC CORR
BDSA   9.3132D-09  3.7253D-08 -3.5763D-07  5.3644D-07 K 29  IONOSPHERIC CORR
BDSA   9.3132D-09  3.7253D-08 -3.5763D-07  5.3644D-07 U 30  IONOSPHERIC CORR
BDSB   1.1264D+05  2.4576D+05 -1.0486D+06  8.5197D+05 W 05  IONOSPHERIC CORR
BDSB   1.0854D+05  2.7853D+05 -1.1141D+06  8.5197D+05 Q 06  IONOSPHERIC CORR
BDSB   1.1264D+05  2.4576D+05 -1.0486D+06  8.5197D+05 W 07  IONOSPHERIC CORR
BDSB   1.1264D+05  2.4576D+05 -9.8304D+05  7.8643D+05 U 09  IONOSPHERIC CORR
BDSB   1.1264D+05  2.4576D+05 -1.0486D+06  8.5197D+05 W 10  IONOSPHERIC CORR
BDSB   1.1059D+05  2.4576D+05 -9.8304D+05  7.2090D+05 P 11  IONOSPHERIC CORR
BDSB   1.1059D+05  2.4576D+05 -9.8304D+05  7.2090D+05 O 12  IONOSPHERIC CORR
BDSB   1.1469D+05  1.6384D+05 -5.2429D+05  4.5875D+05 K 13  IONOSPHERIC CORR
BDSB   1.1264D+05  2.4576D+05 -9.8304D+05  7.8643D+05 U 14  IONOSPHERIC CORR
BDSB   1.0854D+05  2.7853D+05 -1.1141D+06  8.5197D+05 Q 16  IONOSPHERIC CORR
BDSB   1.1674D+05  1.4746D+05 -5.2429D+05  4.5875D+05 M 19  IONOSPHERIC CORR
BDSB   1.1264D+05  2.4576D+05 -1.0486D+06  8.5197D+05 W 20  IONOSPHERIC CORR
BDSB   1.0854D+05  2.7853D+05 -1.1141D+06  8.5197D+05 Q 21  IONOSPHERIC CORR
BDSB   1.1059D+05  2.4576D+05 -9.8304D+05  7.2090D+05 O 22  IONOSPHERIC CORR
BDSB   1.1264D+05  2.4576D+05 -1.0486D+06  8.5197D+05 W 23  IONOSPHERIC CORR
BDSB   1.1264D+05  2.4576D+05 -9.8304D+05  7.8643D+05 U 24  IONOSPHERIC CORR
BDSB   1.1264D+05  2.4576D+05 -1.0486D+06  8.5197D+05 W 25  IONOSPHERIC CORR
BDSB   1.1059D+05  2.6214D+05 -1.0486D+06  8.5197D+05 S 26  IONOSPHERIC CORR
BDSB   1.1264D+05  2.4576D+05 -9.8304D+05  7.8643D+05 U 27  IONOSPHERIC CORR
BDSB   1.1059D+05  2.6214D+05 -1.0486D+06  8.5197D+05 S 28  IONOSPHERIC CORR
BDSB   1.1469D+05  1.6384D+05 -5.2429D+05  4.5875D+05 K 29  IONOSPHERIC CORR
BDSB   1.1264D+05  2.4576D+05 -9.8304D+05  7.8643D+05 U 30  IONOSPHERIC CORR
GPUT  1.8626451492D-09 1.776356839D-15 503808 2165          TIME SYSTEM CORR
GLUT  2.0954757929D-08 0.000000000D+00      0    0          TIME SYSTEM CORR
GAUT  9.3132257462D-10 0.000000000D+00 259200 2165          TIME SYSTEM CORR
GPGA  1.8044374883D-09-1.776356839D-15 345600 2165          TIME SYSTEM CORR
BDUT -4.6566128731D-09-9.769962617D-15 345545  809          TIME SYSTEM CORR
    18    18  1929     7                                    LEAP SECONDS
                                                            END OF HEADER
E26 2021 07 08 06 50 00 1.604162738658D-03-4.395417363412D-11 0.000000000000D+00
     1.050000000000D+02-1.402812500000D+02 2.810831368123D-09-2.274294288412D+00
    -6.558373570442D-06 1.265798928216D-04-3.408640623093D-07 5.440617662430D+03
     3.702000000000D+05 4.656612873077D-08 1.896389410517D+00 5.215406417847D-08
     9.883238999089D-01 3.595312500000D+02 2.176807720002D+00-5.774883404216D-09
    -3.071556514086D-10 2.580000000000D+02 2.165000000000D+03 0.000000000000D+00
     3.120000000000D+00 0.000000000000D+00 6.519258022308D-09 0.000000000000D+00
     3.711000000000D+05
E26 2021 07 08 07 00 00 1.604136428796D-03-4.396838448884D-11 0.000000000000D+00
     1.060000000000D+02-1.420937500000D+02 2.818331680541D-09-2.201924997917D+00
    -6.627291440964D-06 1.265982864425D-04-3.017485141754D-07 5.440617155075D+03
     3.708000000000D+05 4.656612873077D-08 1.896385944864D+00 5.774199962616D-08
     9.883237419137D-01 3.585312500000D+02 2.178823229053D+00-5.770954669140D-09
    -3.089414400796D-10 5.130000000000D+02 2.165000000000D+03 0.000000000000D+00
     3.120000000000D+00 0.000000000000D+00 6.519258022308D-09 7.217749953270D-09
     3.714550000000D+05
E27 2021 07 08 07 00 00-7.098767673597D-05-8.313350008393D-12 0.000000000000D+00
     1.060000000000D+02 1.458437500000D+02 2.582964733706D-09-2.051403810437D+00
     6.655231118202D-06 1.922842347994D-04 1.123733818531D-05 5.440623035431D+03
     3.708000000000D+05-4.470348358154D-08-1.911363386471D-01-2.235174179077D-08
     9.773715047720D-01 1.066875000000D+02-1.372880318136D+00-5.085926134952D-09
    -3.460858444360D-10 5.130000000000D+02 2.165000000000D+03 0.000000000000D+00
     3.120000000000D+00 0.000000000000D+00 1.862645149231D-09 2.095475792885D-09
     3.714640000000D+05
E21 2021 07 08 07 00 00-6.750245229341D-04-2.160049916711D-12 0.000000000000D+00
     1.060000000000D+02 1.422500000000D+02 2.721899092308D-09-1.913716596995D+00
     6.591901183128D-06 1.018985640258D-04 1.193583011627D-05 5.440619432449D+03
     3.708000000000D+05-6.891787052155D-08-1.911348201382D-01 1.862645149231D-08
     9.773988203783D-01 9.050000000000D+01-2.302616954427D+00-5.127713589853D-09
    -3.064413359402D-10 5.130000000000D+02 2.165000000000D+03 0.000000000000D+00
     3.120000000000D+00 0.000000000000D+00 2.561137080193D-09 2.561137080193D-09
     3.714640000000D+05
E13 2021 07 08 07 00 00 4.187444574200D-04 4.121147867409D-13 0.000000000000D+00
     1.060000000000D+02-1.461562500000D+02 2.630466712354D-09-4.426017687117D-02
    -6.671994924545D-06 1.128360163420D-04 2.887099981308D-07 5.440606601715D+03
     3.708000000000D+05-7.823109626770D-08 1.891659963139D+00 8.195638656616D-08
     9.950742749863D-01 3.509375000000D+02 8.429311999708D-01-5.624519998120D-09
    -3.260850113210D-10 5.130000000000D+02 2.165000000000D+03 0.000000000000D+00
     3.120000000000D+00 0.000000000000D+00 6.984919309616D-10 4.656612873077D-10
     3.714640000000D+05
E26 2021 07 08 07 00 00 1.604136312380D-03-4.395417363412D-11 0.000000000000D+00
     1.060000000000D+02-1.420937500000D+02 2.818331680541D-09-2.201924997917D+00
    -6.627291440964D-06 1.265982864425D-04-3.017485141754D-07 5.440617155075D+03
     3.708000000000D+05 4.656612873077D-08 1.896385944864D+00 5.774199962616D-08
     9.883237419137D-01 3.585312500000D+02 2.178823229053D+00-5.770954669140D-09
    -3.089414400796D-10 2.580000000000D+02 2.165000000000D+03 0.000000000000D+00
     3.120000000000D+00 0.000000000000D+00 6.519258022308D-09 0.000000000000D+00
     3.715000000000D+05
E13 2021 07 08 07 00 00 4.187453305349D-04 3.979039320257D-13 0.000000000000D+00
     1.060000000000D+02-1.461562500000D+02 2.630466712354D-09-4.426017687117D-02
    -6.671994924545D-06 1.128360163420D-04 2.887099981308D-07 5.440606601715D+03
     3.708000000000D+05-7.823109626770D-08 1.891659963139D+00 8.195638656616D-08
     9.950742749863D-01 3.509375000000D+02 8.429311999708D-01-5.624519998120D-09
    -3.260850113210D-10 2.580000000000D+02 2.165000000000D+03 0.000000000000D+00
     3.120000000000D+00 0.000000000000D+00 6.984919309616D-10 0.000000000000D+00
     3.715000000000D+05
E27 2021 07 08 07 00 00-7.098721107468D-05-8.313350008393D-12 0.000000000000D+00
     1.060000000000D+02 1.458437500000D+02 2.582964733706D-09-2.051403810437D+00
     6.655231118202D-06 1.922842347994D-04 1.123733818531D-05 5.440623035431D+03
     3.708000000000D+05-4.470348358154D-08-1.911363386471D-01-2.235174179077D-08
     9.773715047720D-01 1.066875000000D+02-1.372880318136D+00-5.085926134952D-09
    -3.460858444360D-10 2.580000000000D+02 2.165000000000D+03 0.000000000000D+00
     3.120000000000D+00 0.000000000000D+00 1.862645149231D-09 0.000000000000D+00
     3.715000000000D+05
E21 2021 07 08 07 00 00-6.750239990652D-04-2.174260771426D-12 0.000000000000D+00
     1.060000000000D+02 1.422500000000D+02 2.721899092308D-09-1.913716596995D+00
     6.591901183128D-06 1.018985640258D-04 1.193583011627D-05 5.440619432449D+03
     3.708000000000D+05-6.891787052155D-08-1.911348201382D-01 1.862645149231D-08
     9.773988203783D-01 9.050000000000D+01-2.302616954427D+00-5.127713589853D-09
    -3.064413359402D-10 2.580000000000D+02 2.165000000000D+03 0.000000000000D+00
     3.120000000000D+00 0.000000000000D+00 2.561137080193D-09 0.000000000000D+00
     3.715000000000D+05
